[{"OBJECT_NAME":"IRIDIUM 124","OBJECT_ID":"2017-039H","EPOCH":"2026-03-28T21:44:55.156416","MEAN_MOTION":14.43288644,"ECCENTRICITY":0.00021174,"INCLINATION":86.4502,"RA_OF_ASC_NODE":323.948,"ARG_OF_PERICENTER":87.7592,"MEAN_ANOMALY":272.3851,"EPHEMERIS_TYPE":0,"CLASSIFICATION_TYPE":"U","NORAD_CAT_ID":42810,"ELEMENT_SET_NO":999,"REV_AT_EPOCH":46353,"BSTAR":0.00010081468,"MEAN_MOTION_DOT":3.59e-6,"MEAN_MOTION_DDOT":0},{"OBJECT_NAME":"IRIDIUM 128","OBJECT_ID":"2017-039J","EPOCH":"2026-03-28T21:44:02.717664","MEAN_MOTION":14.34218586,"ECCENTRICITY":0.00023352,"INCLINATION":86.3942,"RA_OF_ASC_NODE":58.7025,"ARG_OF_PERICENTER":91.2443,"MEAN_ANOMALY":268.902,"EPHEMERIS_TYPE":0,"CLASSIFICATION_TYPE":"U","NORAD_CAT_ID":42811,"ELEMENT_SET_NO":999,"REV_AT_EPOCH":45847,"BSTAR":5.7694725e-5,"MEAN_MOTION_DOT":1.81e-6,"MEAN_MOTION_DDOT":0},{"OBJECT_NAME":"IRIDIUM 121","OBJECT_ID":"2017-039K","EPOCH":"2026-03-28T20:44:18.316896","MEAN_MOTION":14.34216749,"ECCENTRICITY":0.00022859,"INCLINATION":86.4004,"RA_OF_ASC_NODE":27.2264,"ARG_OF_PERICENTER":85.0173,"MEAN_ANOMALY":275.1284,"EPHEMERIS_TYPE":0,"CLASSIFICATION_TYPE":"U","NORAD_CAT_ID":42812,"ELEMENT_SET_NO":999,"REV_AT_EPOCH":45831,"BSTAR":9.0580997e-5,"MEAN_MOTION_DOT":2.73e-6,"MEAN_MOTION_DDOT":0},{"OBJECT_NAME":"IRIDIUM 133","OBJECT_ID":"2017-061A","EPOCH":"2026-03-28T22:29:42.707904","MEAN_MOTION":14.34218032,"ECCENTRICITY":0.00022404,"INCLINATION":86.3942,"RA_OF_ASC_NODE":58.8051,"ARG_OF_PERICENTER":89.1397,"MEAN_ANOMALY":271.0055,"EPHEMERIS_TYPE":0,"CLASSIFICATION_TYPE":"U","NORAD_CAT_ID":42955,"ELEMENT_SET_NO":999,"REV_AT_EPOCH":44327,"BSTAR":2.5595495e-5,"MEAN_MOTION_DOT":9.1e-7,"MEAN_MOTION_DDOT":0},{"OBJECT_NAME":"IRIDIUM 100","OBJECT_ID":"2017-061B","EPOCH":"2026-03-28T22:20:34.693440","MEAN_MOTION":14.34218185,"ECCENTRICITY":0.00022094,"INCLINATION":86.3942,"RA_OF_ASC_NODE":58.7281,"ARG_OF_PERICENTER":89.3179,"MEAN_ANOMALY":270.827,"EPHEMERIS_TYPE":0,"CLASSIFICATION_TYPE":"U","NORAD_CAT_ID":42956,"ELEMENT_SET_NO":999,"REV_AT_EPOCH":44327,"BSTAR":6.3545682e-5,"MEAN_MOTION_DOT":1.98e-6,"MEAN_MOTION_DDOT":0},{"OBJECT_NAME":"IRIDIUM 122","OBJECT_ID":"2017-061C","EPOCH":"2026-03-28T21:34:54.670368","MEAN_MOTION":14.3421799,"ECCENTRICITY":0.00020449,"INCLINATION":86.3941,"RA_OF_ASC_NODE":58.7418,"ARG_OF_PERICENTER":88.4954,"MEAN_ANOMALY":271.6476,"EPHEMERIS_TYPE":0,"CLASSIFICATION_TYPE":"U","NORAD_CAT_ID":42957,"ELEMENT_SET_NO":999,"REV_AT_EPOCH":44327,"BSTAR":-1.2845401e-5,"MEAN_MOTION_DOT":-1.6e-7,"MEAN_MOTION_DDOT":0},{"OBJECT_NAME":"IRIDIUM 129","OBJECT_ID":"2017-061D","EPOCH":"2026-03-28T22:11:26.692800","MEAN_MOTION":14.3421751,"ECCENTRICITY":0.00021534,"INCLINATION":86.3942,"RA_OF_ASC_NODE":58.7969,"ARG_OF_PERICENTER":78.9632,"MEAN_ANOMALY":281.1806,"EPHEMERIS_TYPE":0,"CLASSIFICATION_TYPE":"U","NORAD_CAT_ID":42958,"ELEMENT_SET_NO":999,"REV_AT_EPOCH":44329,"BSTAR":7.828386e-6,"MEAN_MOTION_DOT":4.2e-7,"MEAN_MOTION_DDOT":0},{"OBJECT_NAME":"IRIDIUM 119","OBJECT_ID":"2017-061E","EPOCH":"2026-03-28T21:25:46.678368","MEAN_MOTION":14.34217382,"ECCENTRICITY":0.00020651,"INCLINATION":86.3945,"RA_OF_ASC_NODE":58.8059,"ARG_OF_PERICENTER":85.7338,"MEAN_ANOMALY":274.4093,"EPHEMERIS_TYPE":0,"CLASSIFICATION_TYPE":"U","NORAD_CAT_ID":42959,"ELEMENT_SET_NO":999,"REV_AT_EPOCH":44330,"BSTAR":7.948393e-6,"MEAN_MOTION_DOT":4.2e-7,"MEAN_MOTION_DDOT":0},{"OBJECT_NAME":"IRIDIUM 107","OBJECT_ID":"2017-061F","EPOCH":"2026-03-28T20:12:42.662880","MEAN_MOTION":14.34217626,"ECCENTRICITY":0.00019532,"INCLINATION":86.3944,"RA_OF_ASC_NODE":58.8481,"ARG_OF_PERICENTER":94.9266,"MEAN_ANOMALY":265.2152,"EPHEMERIS_TYPE":0,"CLASSIFICATION_TYPE":"U","NORAD_CAT_ID":42960,"ELEMENT_SET_NO":999,"REV_AT_EPOCH":44330,"BSTAR":-1.34158e-6,"MEAN_MOTION_DOT":1.6e-7,"MEAN_MOTION_DDOT":0},{"OBJECT_NAME":"IRIDIUM 132","OBJECT_ID":"2017-061G","EPOCH":"2026-03-28T22:02:18.699072","MEAN_MOTION":14.34217602,"ECCENTRICITY":0.0002093,"INCLINATION":86.3942,"RA_OF_ASC_NODE":58.7962,"ARG_OF_PERICENTER":90.1242,"MEAN_ANOMALY":270.0193,"EPHEMERIS_TYPE":0,"CLASSIFICATION_TYPE":"U","NORAD_CAT_ID":42961,"ELEMENT_SET_NO":999,"REV_AT_EPOCH":44331,"BSTAR":-1.586016e-6,"MEAN_MOTION_DOT":1.5e-7,"MEAN_MOTION_DDOT":0},{"OBJECT_NAME":"IRIDIUM 136","OBJECT_ID":"2017-061H","EPOCH":"2026-03-28T21:07:30.660672","MEAN_MOTION":14.3421835,"ECCENTRICITY":0.00020691,"INCLINATION":86.3945,"RA_OF_ASC_NODE":58.8183,"ARG_OF_PERICENTER":87.528,"MEAN_ANOMALY":272.6153,"EPHEMERIS_TYPE":0,"CLASSIFICATION_TYPE":"U","NORAD_CAT_ID":42962,"ELEMENT_SET_NO":999,"REV_AT_EPOCH":44332,"BSTAR":3.9793014e-5,"MEAN_MOTION_DOT":1.31e-6,"MEAN_MOTION_DDOT":0},{"OBJECT_NAME":"IRIDIUM 139","OBJECT_ID":"2017-061J","EPOCH":"2026-03-28T21:16:38.676864","MEAN_MOTION":14.34218431,"ECCENTRICITY":0.00022371,"INCLINATION":86.3945,"RA_OF_ASC_NODE":58.8762,"ARG_OF_PERICENTER":89.8892,"MEAN_ANOMALY":270.256,"EPHEMERIS_TYPE":0,"CLASSIFICATION_TYPE":"U","NORAD_CAT_ID":42963,"ELEMENT_SET_NO":999,"REV_AT_EPOCH":44333,"BSTAR":6.1685059e-5,"MEAN_MOTION_DOT":1.93e-6,"MEAN_MOTION_DDOT":0},{"OBJECT_NAME":"IRIDIUM 125","OBJECT_ID":"2017-061K","EPOCH":"2026-03-28T20:58:22.523520","MEAN_MOTION":14.34218852,"ECCENTRICITY":0.00016466,"INCLINATION":86.3945,"RA_OF_ASC_NODE":58.9411,"ARG_OF_PERICENTER":90.896,"MEAN_ANOMALY":269.2424,"EPHEMERIS_TYPE":0,"CLASSIFICATION_TYPE":"U","NORAD_CAT_ID":42964,"ELEMENT_SET_NO":999,"REV_AT_EPOCH":44334,"BSTAR":8.7261927e-5,"MEAN_MOTION_DOT":2.64e-6,"MEAN_MOTION_DDOT":0},{"OBJECT_NAME":"IRIDIUM 135","OBJECT_ID":"2017-083A","EPOCH":"2026-03-28T18:40:39.182592","MEAN_MOTION":14.34218761,"ECCENTRICITY":0.00021969,"INCLINATION":86.4025,"RA_OF_ASC_NODE":355.626,"ARG_OF_PERICENTER":85.6787,"MEAN_ANOMALY":274.4659,"EPHEMERIS_TYPE":0,"CLASSIFICATION_TYPE":"U","NORAD_CAT_ID":43070,"ELEMENT_SET_NO":999,"REV_AT_EPOCH":43262,"BSTAR":7.8348512e-5,"MEAN_MOTION_DOT":2.39e-6,"MEAN_MOTION_DDOT":0},{"OBJECT_NAME":"IRIDIUM 138","OBJECT_ID":"2017-083B","EPOCH":"2026-03-28T19:17:11.173056","MEAN_MOTION":14.34218762,"ECCENTRICITY":0.00018767,"INCLINATION":86.4037,"RA_OF_ASC_NODE":355.2987,"ARG_OF_PERICENTER":77.8248,"MEAN_ANOMALY":282.3158,"EPHEMERIS_TYPE":0,"CLASSIFICATION_TYPE":"U","NORAD_CAT_ID":43071,"ELEMENT_SET_NO":999,"REV_AT_EPOCH":43261,"BSTAR":9.165738e-5,"MEAN_MOTION_DOT":2.76e-6,"MEAN_MOTION_DDOT":0},{"OBJECT_NAME":"IRIDIUM 116","OBJECT_ID":"2017-083C","EPOCH":"2026-03-28T20:11:58.807968","MEAN_MOTION":14.34215483,"ECCENTRICITY":0.00023841,"INCLINATION":86.4024,"RA_OF_ASC_NODE":355.5865,"ARG_OF_PERICENTER":89.519,"MEAN_ANOMALY":270.6279,"EPHEMERIS_TYPE":0,"CLASSIFICATION_TYPE":"U","NORAD_CAT_ID":43072,"ELEMENT_SET_NO":999,"REV_AT_EPOCH":43265,"BSTAR":8.4529386e-5,"MEAN_MOTION_DOT":2.56e-6,"MEAN_MOTION_DDOT":0},{"OBJECT_NAME":"IRIDIUM 130","OBJECT_ID":"2017-083D","EPOCH":"2026-03-28T19:26:19.186656","MEAN_MOTION":14.3421751,"ECCENTRICITY":0.00020674,"INCLINATION":86.4028,"RA_OF_ASC_NODE":355.8668,"ARG_OF_PERICENTER":92.646,"MEAN_ANOMALY":267.4972,"EPHEMERIS_TYPE":0,"CLASSIFICATION_TYPE":"U","NORAD_CAT_ID":43073,"ELEMENT_SET_NO":999,"REV_AT_EPOCH":43259,"BSTAR":-2.6115067e-5,"MEAN_MOTION_DOT":-5.3e-7,"MEAN_MOTION_DDOT":0}]
